CCSDS_OMM_VERS = 2.0
CREATION_DATE  = 
ORIGINATOR     = 

OBJECT_NAME    = ALSAT-3B
OBJECT_ID      = 2026-021A
CENTER_NAME    = EARTH
REF_FRAME      = TEME
TIME_SYSTEM    = UTC
MEAN_ELEMENT_THEORY = SGP/SGP4

EPOCH          = 2026-03-02T03:50:03.613056
MEAN_MOTION    = 15.23820831
ECCENTRICITY   = .0013317
INCLINATION    = 97.4686
RA_OF_ASC_NODE = 135.5306
ARG_OF_PERICENTER = 156.5543
MEAN_ANOMALY   = 203.6304

EPHEMERIS_TYPE = 0
CLASSIFICATION_TYPE = U
NORAD_CAT_ID   = 67646
ELEMENT_SET_NO = 999
REV_AT_EPOCH   = 457
BSTAR          = .35337E-3
MEAN_MOTION_DOT = .8465E-4
MEAN_MOTION_DDOT = 0

CCSDS_OMM_VERS = 2.0
CREATION_DATE  = 
ORIGINATOR     = 

OBJECT_NAME    = CZ-2C R/B
OBJECT_ID      = 2026-021B
CENTER_NAME    = EARTH
REF_FRAME      = TEME
TIME_SYSTEM    = UTC
MEAN_ELEMENT_THEORY = SGP/SGP4

EPOCH          = 2026-03-02T03:54:42.412896
MEAN_MOTION    = 15.23862108
ECCENTRICITY   = .0151865
INCLINATION    = 97.6525
RA_OF_ASC_NODE = 136.4852
ARG_OF_PERICENTER = 37.5004
MEAN_ANOMALY   = 323.6711

EPHEMERIS_TYPE = 0
CLASSIFICATION_TYPE = U
NORAD_CAT_ID   = 67647
ELEMENT_SET_NO = 999
REV_AT_EPOCH   = 455
BSTAR          = .40298E-3
MEAN_MOTION_DOT = .13417E-3
MEAN_MOTION_DDOT = 0

CCSDS_OMM_VERS = 2.0
CREATION_DATE  = 
ORIGINATOR     = 

OBJECT_NAME    = STARLINK-36719
OBJECT_ID      = 2026-022A
CENTER_NAME    = EARTH
REF_FRAME      = TEME
TIME_SYSTEM    = UTC
MEAN_ELEMENT_THEORY = SGP/SGP4

EPOCH          = 2026-03-02T03:59:39.020640
MEAN_MOTION    = 15.75204911
ECCENTRICITY   = .0001743
INCLINATION    = 97.2825
RA_OF_ASC_NODE = 94.7576
ARG_OF_PERICENTER = 100.8865
MEAN_ANOMALY   = 259.2596

EPHEMERIS_TYPE = 0
CLASSIFICATION_TYPE = U
NORAD_CAT_ID   = 67648
ELEMENT_SET_NO = 999
REV_AT_EPOCH   = 436
BSTAR          = .12059E-2
MEAN_MOTION_DOT = .183782E-2
MEAN_MOTION_DDOT = 0

CCSDS_OMM_VERS = 2.0
CREATION_DATE  = 
ORIGINATOR     = 

OBJECT_NAME    = STARLINK-36342
OBJECT_ID      = 2026-022B
CENTER_NAME    = EARTH
REF_FRAME      = TEME
TIME_SYSTEM    = UTC
MEAN_ELEMENT_THEORY = SGP/SGP4

EPOCH          = 2026-03-02T03:58:38.129376
MEAN_MOTION    = 15.75173420
ECCENTRICITY   = .0001484
INCLINATION    = 97.2835
RA_OF_ASC_NODE = 94.7589
ARG_OF_PERICENTER = 68.9312
MEAN_ANOMALY   = 291.2112

EPHEMERIS_TYPE = 0
CLASSIFICATION_TYPE = U
NORAD_CAT_ID   = 67649
ELEMENT_SET_NO = 999
REV_AT_EPOCH   = 436
BSTAR          = .10334E-2
MEAN_MOTION_DOT = .156763E-2
MEAN_MOTION_DDOT = 0

CCSDS_OMM_VERS = 2.0
CREATION_DATE  = 
ORIGINATOR     = 

OBJECT_NAME    = STARLINK-36703
OBJECT_ID      = 2026-022C
CENTER_NAME    = EARTH
REF_FRAME      = TEME
TIME_SYSTEM    = UTC
MEAN_ELEMENT_THEORY = SGP/SGP4

EPOCH          = 2026-03-02T03:57:06.630912
MEAN_MOTION    = 15.75199495
ECCENTRICITY   = .0001066
INCLINATION    = 97.2832
RA_OF_ASC_NODE = 94.7601
ARG_OF_PERICENTER = 90.7981
MEAN_ANOMALY   = 269.3406

EPHEMERIS_TYPE = 0
CLASSIFICATION_TYPE = U
NORAD_CAT_ID   = 67650
ELEMENT_SET_NO = 999
REV_AT_EPOCH   = 436
BSTAR          = .11517E-2
MEAN_MOTION_DOT = .175295E-2
MEAN_MOTION_DDOT = 0

CCSDS_OMM_VERS = 2.0
CREATION_DATE  = 
ORIGINATOR     = 

OBJECT_NAME    = STARLINK-36696
OBJECT_ID      = 2026-022D
CENTER_NAME    = EARTH
REF_FRAME      = TEME
TIME_SYSTEM    = UTC
MEAN_ELEMENT_THEORY = SGP/SGP4

EPOCH          = 2026-03-02T03:54:34.230816
MEAN_MOTION    = 15.75174980
ECCENTRICITY   = .0001846
INCLINATION    = 97.2826
RA_OF_ASC_NODE = 94.7621
ARG_OF_PERICENTER = 96.8071
MEAN_ANOMALY   = 263.3404

EPHEMERIS_TYPE = 0
CLASSIFICATION_TYPE = U
NORAD_CAT_ID   = 67651
ELEMENT_SET_NO = 999
REV_AT_EPOCH   = 436
BSTAR          = .14085E-2
MEAN_MOTION_DOT = .215201E-2
MEAN_MOTION_DDOT = 0

CCSDS_OMM_VERS = 2.0
CREATION_DATE  = 
ORIGINATOR     = 

OBJECT_NAME    = STARLINK-36699
OBJECT_ID      = 2026-022E
CENTER_NAME    = EARTH
REF_FRAME      = TEME
TIME_SYSTEM    = UTC
MEAN_ELEMENT_THEORY = SGP/SGP4

EPOCH          = 2026-03-02T03:53:33.141696
MEAN_MOTION    = 15.75196862
ECCENTRICITY   = .0001072
INCLINATION    = 97.2831
RA_OF_ASC_NODE = 94.7635
ARG_OF_PERICENTER = 67.0710
MEAN_ANOMALY   = 293.0668

EPHEMERIS_TYPE = 0
CLASSIFICATION_TYPE = U
NORAD_CAT_ID   = 67652
ELEMENT_SET_NO = 999
REV_AT_EPOCH   = 436
BSTAR          = .12084E-2
MEAN_MOTION_DOT = .184105E-2
MEAN_MOTION_DDOT = 0

CCSDS_OMM_VERS = 2.0
CREATION_DATE  = 
ORIGINATOR     = 

OBJECT_NAME    = STARLINK-36694
OBJECT_ID      = 2026-022F
CENTER_NAME    = EARTH
REF_FRAME      = TEME
TIME_SYSTEM    = UTC
MEAN_ELEMENT_THEORY = SGP/SGP4

EPOCH          = 2026-03-02T04:00:01.999584
MEAN_MOTION    = 15.75172572
ECCENTRICITY   = .0001395
INCLINATION    = 97.2832
RA_OF_ASC_NODE = 94.7740
ARG_OF_PERICENTER = 91.5149
MEAN_ANOMALY   = 306.1148

EPHEMERIS_TYPE = 0
CLASSIFICATION_TYPE = U
NORAD_CAT_ID   = 67653
ELEMENT_SET_NO = 999
REV_AT_EPOCH   = 568
BSTAR          = .72887E-4
MEAN_MOTION_DOT = .10747E-3
MEAN_MOTION_DDOT = 0

CCSDS_OMM_VERS = 2.0
CREATION_DATE  = 
ORIGINATOR     = 

OBJECT_NAME    = STARLINK-36620
OBJECT_ID      = 2026-022G
CENTER_NAME    = EARTH
REF_FRAME      = TEME
TIME_SYSTEM    = UTC
MEAN_ELEMENT_THEORY = SGP/SGP4

EPOCH          = 2026-03-02T04:00:01.999584
MEAN_MOTION    = 15.75230773
ECCENTRICITY   = .0001277
INCLINATION    = 97.2830
RA_OF_ASC_NODE = 94.7741
ARG_OF_PERICENTER = 95.6705
MEAN_ANOMALY   = 303.9457

EPHEMERIS_TYPE = 0
CLASSIFICATION_TYPE = U
NORAD_CAT_ID   = 67654
ELEMENT_SET_NO = 999
REV_AT_EPOCH   = 568
BSTAR          = -.7923E-3
MEAN_MOTION_DOT = -.116909E-2
MEAN_MOTION_DDOT = 0

CCSDS_OMM_VERS = 2.0
CREATION_DATE  = 
ORIGINATOR     = 

OBJECT_NAME    = STARLINK-36720
OBJECT_ID      = 2026-022H
CENTER_NAME    = EARTH
REF_FRAME      = TEME
TIME_SYSTEM    = UTC
MEAN_ELEMENT_THEORY = SGP/SGP4

EPOCH          = 2026-03-02T00:44:28.901184
MEAN_MOTION    = 15.75294809
ECCENTRICITY   = .0001044
INCLINATION    = 97.2827
RA_OF_ASC_NODE = 94.6355
ARG_OF_PERICENTER = 128.8124
MEAN_ANOMALY   = 231.3235

EPHEMERIS_TYPE = 0
CLASSIFICATION_TYPE = U
NORAD_CAT_ID   = 67655
ELEMENT_SET_NO = 999
REV_AT_EPOCH   = 434
BSTAR          = .16299E-2
MEAN_MOTION_DOT = .25141E-2
MEAN_MOTION_DDOT = 0

CCSDS_OMM_VERS = 2.0
CREATION_DATE  = 
ORIGINATOR     = 

OBJECT_NAME    = STARLINK-36688
OBJECT_ID      = 2026-022J
CENTER_NAME    = EARTH
REF_FRAME      = TEME
TIME_SYSTEM    = UTC
MEAN_ELEMENT_THEORY = SGP/SGP4

EPOCH          = 2026-03-02T00:43:28.703712
MEAN_MOTION    = 15.75334153
ECCENTRICITY   = .0001428
INCLINATION    = 97.2833
RA_OF_ASC_NODE = 94.6362
ARG_OF_PERICENTER = 117.2453
MEAN_ANOMALY   = 242.8958

EPHEMERIS_TYPE = 0
CLASSIFICATION_TYPE = U
NORAD_CAT_ID   = 67656
ELEMENT_SET_NO = 999
REV_AT_EPOCH   = 434
BSTAR          = .25343E-2
MEAN_MOTION_DOT = .398543E-2
MEAN_MOTION_DDOT = 0

CCSDS_OMM_VERS = 2.0
CREATION_DATE  = 
ORIGINATOR     = 

OBJECT_NAME    = STARLINK-36706
OBJECT_ID      = 2026-022K
CENTER_NAME    = EARTH
REF_FRAME      = TEME
TIME_SYSTEM    = UTC
MEAN_ELEMENT_THEORY = SGP/SGP4

EPOCH          = 2026-03-02T02:12:56.041920
MEAN_MOTION    = 15.75159503
ECCENTRICITY   = .0001136
INCLINATION    = 97.2840
RA_OF_ASC_NODE = 94.7043
ARG_OF_PERICENTER = 94.0910
MEAN_ANOMALY   = 266.0485

EPHEMERIS_TYPE = 0
CLASSIFICATION_TYPE = U
NORAD_CAT_ID   = 67657
ELEMENT_SET_NO = 999
REV_AT_EPOCH   = 435
BSTAR          = .68758E-3
MEAN_MOTION_DOT = .103541E-2
MEAN_MOTION_DDOT = 0

