ALSAT-3B                
1 67646U 26021A   26061.15976404  .00008465  00000+0  35337-3 0  9997
2 67646  97.4686 135.5306 0013317 156.5543 203.6304 15.23820831  4575
CZ-2C R/B               
1 67647U 26021B   26061.16299089  .00013417  00000+0  40298-3 0  9991
2 67647  97.6525 136.4852 0151865  37.5004 323.6711 15.23862108  4553
STARLINK-36719          
1 67648U 26022A   26061.16642385  .00183782  00000+0  12059-2 0  9990
2 67648  97.2825  94.7576 0001743 100.8865 259.2596 15.75204911  4363
STARLINK-36342          
1 67649U 26022B   26061.16571909  .00156763  00000+0  10334-2 0  9997
2 67649  97.2835  94.7589 0001484  68.9312 291.2112 15.75173420  4362
STARLINK-36703          
1 67650U 26022C   26061.16466008  .00175295  00000+0  11517-2 0  9997
2 67650  97.2832  94.7601 0001066  90.7981 269.3406 15.75199495  4369
STARLINK-36696          
1 67651U 26022D   26061.16289619  .00215201  00000+0  14085-2 0  9994
2 67651  97.2826  94.7621 0001846  96.8071 263.3404 15.75174980  4362
STARLINK-36699          
1 67652U 26022E   26061.16218914  .00184105  00000+0  12084-2 0  9990
2 67652  97.2831  94.7635 0001072  67.0710 293.0668 15.75196862  4360
STARLINK-36694          
1 67653U 26022F   26061.16668981  .00010747  00000+0  72887-4 0  9993
2 67653  97.2832  94.7740 0001395  91.5149 306.1148 15.75172572  5682
STARLINK-36620          
1 67654U 26022G   26061.16668981 -.00116909  00000+0 -79230-3 0  9991
2 67654  97.2830  94.7741 0001277  95.6705 303.9457 15.75230773  5680
STARLINK-36720          
1 67655U 26022H   26061.03089006  .00251410  00000+0  16299-2 0  9993
2 67655  97.2827  94.6355 0001044 128.8124 231.3235 15.75294809  4343
STARLINK-36688          
1 67656U 26022J   26061.03019333  .00398543  00000+0  25343-2 0  9999
2 67656  97.2833  94.6362 0001428 117.2453 242.8958 15.75334153  4348
STARLINK-36706          
1 67657U 26022K   26061.09231530  .00103541  00000+0  68758-3 0  9991
2 67657  97.2840  94.7043 0001136  94.0910 266.0485 15.75159503  4358
